HAWK-11B                
1 62379U 24247C   26068.44730104  .00009093  00000+0  32842-3 0  9993
2 62379  45.0161 115.7610 0004690 333.0326  27.0314 15.28847070 67738
STARLINK-33829          
1 63496U 25071D   26068.51972162  .00023428  00000+0  80040-3 0  9991
2 63496  53.1599 140.7355 0001182  72.3028 287.8101 15.30209390 52681
